{
  "norad_id": 56333,
  "name": "STARLINK-5553",
  "history": [
    {
      "epoch": "2026-03-28T21:25:14.444256",
      "apogee_km": 550.7647511721261,
      "perigee_km": 548.2417046011306,
      "latitude_deg": -84.9992499379818,
      "longitude_deg": -101.01728415978141,
      "semi_major_axis_km": 6927.640227886628,
      "eccentricity": 0.0001821,
      "inclination_deg": 97.6037,
      "raan_deg": 90.1104,
      "arg_perigee_deg": 90.4442,
      "mean_anomaly_deg": 269.6993,
      "mean_motion_rev_day": 15.05652584
    }
  ]
}